PROGRESS-MS 32          
1 65586U 25204A   25310.29236606  .00011954  00000+0  21866-3 0  9993
2 65586  51.6335 322.9076 0005123  22.8618 337.2598 15.49789706   274
CYGNUS NG-23            
1 65616U 25208A   25310.29236606  .00011954  00000+0  21866-3 0  9991
2 65616  51.6335 322.9076 0005123  22.8618 337.2598 15.49789706   223
DRAGONFLY               
1 65729U 98067XH  25310.29850792  .00128074  00000+0  14973-2 0  9999
2 65729  51.6311 320.7027 0003930  83.8399 276.3042 15.60650724  7450
1998-067XJ              
1 65730U 98067XJ  25310.30495847  .00394142  00000+0  29815-2 0  9991
2 65730  51.6280 319.2366 0011226  66.4281 293.7894 15.70599974  7470
1998-067XK              
1 65731U 98067XK  25310.26531606  .00089349  00000+0  11467-2 0  9995
2 65731  51.6331 321.2326 0005186  62.0768 298.0749 15.58361534  7446
RSP-03                  
1 65732U 98067XL  25310.25025286  .00107296  00000+0  13166-2 0  9997
2 65732  51.6306 321.1300 0006017  63.6612 296.4998 15.59460594  7455
GHS-01                  
1 65733U 98067XM  25310.28797262  .00146135  00000+0  16516-2 0  9998
2 65733  51.6319 320.6332 0004466  81.6850 278.4650 15.61457116  7464
YOTSUBA-KULOVER         
1 65941U 98067XN  25310.31144519  .00071602  00000+0  10917-2 0  9999
2 65941  51.6323 322.2864 0002628  13.3948 346.7112 15.53808670  4180
BOTAN                   
1 65942U 98067XP  25310.23832496  .00095041  00000+0  13891-2 0  9996
2 65942  51.6323 322.5492 0004830  28.2597 331.8656 15.54833848  4176
E-KAGAKU-1              
1 65943U 98067XQ  25309.47487028  .00055785  00000+0  85730-3 0  9991
2 65943  51.6326 326.4510 0004385  13.9907 346.1204 15.53691300  4054
HRC MONOBLOCK CAMERA    
1 66052U 98067XR  25310.28294046  .00038479  00000+0  65658-3 0  9998
2 66052  51.6322 322.8434 0004604  34.3942 325.7344 15.50938396  3173
HTV-X1                  
1 66174U 25241A   25310.29236606  .00011954  00000+0  21866-3 0  9998
2 66174  51.6335 322.9076 0005123  22.8618 337.2598 15.49789706  1459
